GLOBALSTAR M075         
1 37192U 10054E   23265.87424280 -.00000079  00000+0  13915-3 0  9993
2 37192  51.9955 309.8397 0000360  69.6577 101.0983 12.62261519596025
GLOBALSTAR M073         
1 37193U 10054F   23265.31522934 -.00000080  00000+0  13036-3 0  9994
2 37193  52.0047 224.8738 0000461  62.3915  87.0050 12.62267611597784
GLOBALSTAR M083         
1 37739U 11033A   23265.16940508 -.00000079  00000+0  13940-3 0  9994
2 37739  51.9850 174.9145 0000357  54.8092  92.8071 12.62269239566784
GLOBALSTAR M088         
1 37740U 11033B   23265.74684584 -.00000100  00000+0  18922-4 0  9990
2 37740  51.9729  79.1795 0000558  70.4359 301.9129 12.62265782562403
GLOBALSTAR M091         
1 37741U 11033C   23265.87419137 -.00000095  00000+0  49428-4 0  9993
2 37741  52.0016  41.2140 0000461  77.0483  93.6055 12.62266412563206
GLOBALSTAR M085         
1 37742U 11033D   23265.44498531 -.00000087  00000+0  92727-4 0  9993
2 37742  51.9899 354.1219 0000326  99.4870 340.7789 12.62263064563665
GLOBALSTAR M081         
1 37743U 11033E   23265.55560667 -.00000089  00000+0  83523-4 0  9992
2 37743  51.9990 356.1810 0000429  70.9617  32.0187 12.62264543563828
GLOBALSTAR M089         
1 37744U 11033F   23265.84845186 -.00000070  00000+0  19023-3 0  9990
2 37744  51.9937 309.6394 0000640  89.0802  84.7610 12.62267144564705
